SENTINEL-6              
1 46984U 20086A   24193.43519988 -.00000050  00000+0  49466-4 0  9991
2 46984  66.0398 160.9068 0007936 270.2018  89.8087 12.80929793169938
